start=new Date('2022-11-25T00:00:00.000Z').valueOf();
sats=[{"LAUNCH_DATE":"2020-01-29","OBJECT_ID":"2020-006X","MEAN_MOTION":"15.06398688","PERIOD":"95.592","OBJECT_TYPE":"PAYLOAD","FILE":"3669335","MEAN_MOTION_DOT":"0.00001681","SEMIMAJOR_AXIS":"6925.353","REV_AT_EPOCH":"15574","CLASSIFICATION_TYPE":"U","TLE_LINE1":"1 45065U 20006X   22328.82223744  .00001681  00000-0  13173-3 0  9991","ELEMENT_SET_NO":"999","MEAN_ELEMENT_THEORY":"SGP4","TIME_SYSTEM":"UTC","MEAN_ANOMALY":"295.2351","ARG_OF_PERICENTER":"64.8803","INCLINATION":"53.0565","APOAPSIS":"548.323","SITE":"AFETR","TLE_LINE2":"2 45065  53.0565 257.5330 0001596  64.8803 295.2351 15.06398688155744","PERIAPSIS":"546.112","DECAY_DATE":null,"GP_ID":"218721555","RCS_SIZE":"LARGE","BSTAR":"0.00013173000000","CENTER_NAME":"EARTH","RA_OF_ASC_NODE":"257.5330","EPOCH":"2022-11-24T19:44:01.314816","OBJECT_NAME":"STARLINK-1139","COUNTRY_CODE":"US","EPHEMERIS_TYPE":"0","MEAN_MOTION_DDOT":"0.0000000000000","REF_FRAME":"TEME","ECCENTRICITY":"0.00015960","NORAD_CAT_ID":"45065"},{"EPOCH":"2022-11-24T19:06:52.409952","CENTER_NAME":"EARTH","RCS_SIZE":"LARGE","BSTAR":"0.00006654100000","RA_OF_ASC_NODE":"257.6355","DECAY_DATE":null,"GP_ID":"218719812","NORAD_CAT_ID":"45066","MEAN_MOTION_DDOT":"0.0000000000000","REF_FRAME":"TEME","ECCENTRICITY":"0.00020260","OBJECT_NAME":"STARLINK-1145","COUNTRY_CODE":"US","EPHEMERIS_TYPE":"0","REV_AT_EPOCH":"15573","CLASSIFICATION_TYPE":"U","SEMIMAJOR_AXIS":"6925.373","MEAN_MOTION_DOT":"0.00000709","FILE":"3669335","PERIOD":"95.593","MEAN_MOTION":"15.06392161","LAUNCH_DATE":"2020-01-29","OBJECT_ID":"2020-006Y","OBJECT_TYPE":"PAYLOAD","PERIAPSIS":"545.835","SITE":"AFETR","APOAPSIS":"548.641","INCLINATION":"53.0566","TLE_LINE2":"2 45066  53.0566 257.6355 0002026  50.8638 309.2530 15.06392161155738","TIME_SYSTEM":"UTC","MEAN_ELEMENT_THEORY":"SGP4","ARG_OF_PERICENTER":"50.8638","MEAN_ANOMALY":"309.2530","ELEMENT_SET_NO":"999","TLE_LINE1":"1 45066U 20006Y   22328.79643993  .00000709  00000-0  66541-4 0  9998"},{"TLE_LINE1":"1 45067U 20006Z   22328.81117826  .00000923  00000-0  80877-4 0  9999","ELEMENT_SET_NO":"999","MEAN_ANOMALY":"305.8488","ARG_OF_PERICENTER":"54.2667","MEAN_ELEMENT_THEORY":"SGP4","TIME_SYSTEM":"UTC","TLE_LINE2":"2 45067  53.0542 257.5810 0001789  54.2667 305.8488 15.06398249155741","INCLINATION":"53.0542","APOAPSIS":"548.458","SITE":"AFETR","PERIAPSIS":"545.980","OBJECT_TYPE":"PAYLOAD","LAUNCH_DATE":"2020-01-29","OBJECT_ID":"2020-006Z","PERIOD":"95.592","MEAN_MOTION":"15.06398249","FILE":"3669335","MEAN_MOTION_DOT":"0.00000923","SEMIMAJOR_AXIS":"6925.354","CLASSIFICATION_TYPE":"U","REV_AT_EPOCH":"15574","COUNTRY_CODE":"US","EPHEMERIS_TYPE":"0","OBJECT_NAME":"STARLINK-1150","ECCENTRICITY":"0.00017890","REF_FRAME":"TEME","MEAN_MOTION_DDOT":"0.0000000000000","NORAD_CAT_ID":"45067","GP_ID":"218720062","DECAY_DATE":null,"RA_OF_ASC_NODE":"257.5810","BSTAR":"0.00008087700000","RCS_SIZE":"LARGE","CENTER_NAME":"EARTH","EPOCH":"2022-11-24T19:28:05.801664"},{"MEAN_MOTION_DOT":"0.00000627","REV_AT_EPOCH":"15603","CLASSIFICATION_TYPE":"U","SEMIMAJOR_AXIS":"6925.358","OBJECT_TYPE":"PAYLOAD","PERIOD":"95.592","MEAN_MOTION":"15.06396826","LAUNCH_DATE":"2020-01-29","OBJECT_ID":"2020-006AA","FILE":"3669335","TLE_LINE2":"2 45068  53.0547 258.7586 0001508  69.3247 290.7904 15.06396826156037","APOAPSIS":"548.268","SITE":"AFETR","INCLINATION":"53.0547","PERIAPSIS":"546.179","ELEMENT_SET_NO":"999","TLE_LINE1":"1 45068U 20006AA  22328.51903332  .00000627  00000-0  61007-4 0  9997","ARG_OF_PERICENTER":"69.3247","MEAN_ANOMALY":"290.7904","TIME_SYSTEM":"UTC","MEAN_ELEMENT_THEORY":"SGP4","RA_OF_ASC_NODE":"258.7586","CENTER_NAME":"EARTH","RCS_SIZE":"LARGE","BSTAR":"0.00006100700000","EPOCH":"2022-11-24T12:27:24.478848","GP_ID":"218721311","DECAY_DATE":null,"NORAD_CAT_ID":"45068","EPHEMERIS_TYPE":"0","COUNTRY_CODE":"US","OBJECT_NAME":"STARLINK-1161","ECCENTRICITY":"0.00015080","MEAN_MOTION_DDOT":"0.0000000000000","REF_FRAME":"TEME"},{"NORAD_CAT_ID":"45071","OBJECT_NAME":"STARLINK-1167","COUNTRY_CODE":"US","EPHEMERIS_TYPE":"0","MEAN_MOTION_DDOT":"0.0000000000000","REF_FRAME":"TEME","ECCENTRICITY":"0.00018330","RCS_SIZE":"LARGE","BSTAR":"-0.00001563700000","CENTER_NAME":"EARTH","RA_OF_ASC_NODE":"258.9083","EPOCH":"2022-11-24T12:18:11.138688","DECAY_DATE":null,"GP_ID":"218721056","INCLINATION":"53.0559","SITE":"AFETR","APOAPSIS":"548.515","TLE_LINE2":"2 45071  53.0559 258.9083 0001833  54.7590 305.3570 15.06389500156031","PERIAPSIS":"545.976","TLE_LINE1":"1 45071U 20006AD  22328.51262892 -.00000514  00000-0 -15637-4 0  9995","ELEMENT_SET_NO":"999","MEAN_ELEMENT_THEORY":"SGP4","TIME_SYSTEM":"UTC","MEAN_ANOMALY":"305.3570","ARG_OF_PERICENTER":"54.7590","MEAN_MOTION_DOT":"-0.00000514","SEMIMAJOR_AXIS":"6925.381","CLASSIFICATION_TYPE":"U","REV_AT_EPOCH":"15603","OBJECT_ID":"2020-006AD","LAUNCH_DATE":"2020-01-29","PERIOD":"95.593","MEAN_MOTION":"15.06389500","OBJECT_TYPE":"PAYLOAD","FILE":"3669335"},{"ARG_OF_PERICENTER":"85.3207","MEAN_ANOMALY":"274.7918","TIME_SYSTEM":"UTC","MEAN_ELEMENT_THEORY":"SGP4","ELEMENT_SET_NO":"999","TLE_LINE1":"1 45072U 20006AE  22328.25091559 -.00001627  00000-0 -90340-4 0  9997","PERIAPSIS":"546.392","TLE_LINE2":"2 45072  53.0543 260.0957 0001191  85.3207 274.7918 15.06398793155657","SITE":"AFETR","APOAPSIS":"548.042","INCLINATION":"53.0543","FILE":"3669022","OBJECT_TYPE":"PAYLOAD","MEAN_MOTION":"15.06398793","PERIOD":"95.592","OBJECT_ID":"2020-006AE","LAUNCH_DATE":"2020-01-29","REV_AT_EPOCH":"15565","CLASSIFICATION_TYPE":"U","SEMIMAJOR_AXIS":"6925.352","MEAN_MOTION_DOT":"-0.00001627","ECCENTRICITY":"0.00011910","REF_FRAME":"TEME","MEAN_MOTION_DDOT":"0.0000000000000","COUNTRY_CODE":"US","EPHEMERIS_TYPE":"0","OBJECT_NAME":"STARLINK-1168","NORAD_CAT_ID":"45072","GP_ID":"218663249","DECAY_DATE":null,"EPOCH":"2022-11-24T06:01:19.106976","RA_OF_ASC_NODE":"260.0957","CENTER_NAME":"EARTH","BSTAR":"-0.00009034000000","RCS_SIZE":"LARGE"},{"FILE":"3669335","MEAN_MOTION":"15.06392737","PERIOD":"95.593","OBJECT_ID":"2020-006AF","LAUNCH_DATE":"2020-01-29","OBJECT_TYPE":"PAYLOAD","CLASSIFICATION_TYPE":"U","REV_AT_EPOCH":"15573","SEMIMAJOR_AXIS":"6925.371","MEAN_MOTION_DOT":"0.00001017","TIME_SYSTEM":"UTC","MEAN_ELEMENT_THEORY":"SGP4","ARG_OF_PERICENTER":"45.9134","MEAN_ANOMALY":"314.2023","ELEMENT_SET_NO":"999","TLE_LINE1":"1 45073U 20006AF  22328.80750212  .00001017  00000-0  87212-4 0  9992","PERIAPSIS":"545.824","SITE":"AFETR","APOAPSIS":"548.647","INCLINATION":"53.0561","TLE_LINE2":"2 45073  53.0561 257.5848 0002038  45.9134 314.2023 15.06392737155738","DECAY_DATE":null,"GP_ID":"218720561","EPOCH":"2022-11-24T19:22:48.183168","CENTER_NAME":"EARTH","RCS_SIZE":"LARGE","BSTAR":"0.00008721200000","RA_OF_ASC_NODE":"257.5848","MEAN_MOTION_DDOT":"0.0000000000000","REF_FRAME":"TEME","ECCENTRICITY":"0.00020380","OBJECT_NAME":"STARLINK-1170","EPHEMERIS_TYPE":"0","COUNTRY_CODE":"US","NORAD_CAT_ID":"45073"},{"NORAD_CAT_ID":"45074","REF_FRAME":"TEME","MEAN_MOTION_DDOT":"0.0000000000000","ECCENTRICITY":"0.00016550","OBJECT_NAME":"STARLINK-1172","COUNTRY_CODE":"US","EPHEMERIS_TYPE":"0","EPOCH":"2022-11-24T06:17:14.776512","CENTER_NAME":"EARTH","BSTAR":"0.00004970800000","RCS_SIZE":"LARGE","RA_OF_ASC_NODE":"260.0358","DECAY_DATE":null,"GP_ID":"218664238","PERIAPSIS":"546.063","SITE":"AFETR","APOAPSIS":"548.355","INCLINATION":"53.0559","TLE_LINE2":"2 45074  53.0559 260.0358 0001655  67.3927 292.7237 15.06401531155654","TIME_SYSTEM":"UTC","MEAN_ELEMENT_THEORY":"SGP4","ARG_OF_PERICENTER":"67.3927","MEAN_ANOMALY":"292.7237","ELEMENT_SET_NO":"999","TLE_LINE1":"1 45074U 20006AG  22328.26197658  .00000459  00000-0  49708-4 0  9999","REV_AT_EPOCH":"15565","CLASSIFICATION_TYPE":"U","SEMIMAJOR_AXIS":"6925.344","MEAN_MOTION_DOT":"0.00000459","FILE":"3669022","PERIOD":"95.592","MEAN_MOTION":"15.06401531","OBJECT_ID":"2020-006AG","LAUNCH_DATE":"2020-01-29","OBJECT_TYPE":"PAYLOAD"},{"PERIAPSIS":"546.093","TLE_LINE2":"2 45075  53.0561 257.5135 0001641  51.4510 308.6626 15.06394884155740","SITE":"AFETR","APOAPSIS":"548.366","INCLINATION":"53.0561","ARG_OF_PERICENTER":"51.4510","MEAN_ANOMALY":"308.6626","TIME_SYSTEM":"UTC","MEAN_ELEMENT_THEORY":"SGP4","ELEMENT_SET_NO":"999","TLE_LINE1":"1 45075U 20006AH  22328.82592405  .00001848  00000-0  14296-3 0  9997","REV_AT_EPOCH":"15574","CLASSIFICATION_TYPE":"U","SEMIMAJOR_AXIS":"6925.364","MEAN_MOTION_DOT":"0.00001848","FILE":"3669335","OBJECT_TYPE":"PAYLOAD","PERIOD":"95.592","MEAN_MOTION":"15.06394884","OBJECT_ID":"2020-006AH","LAUNCH_DATE":"2020-01-29","NORAD_CAT_ID":"45075","ECCENTRICITY":"0.00016410","REF_FRAME":"TEME","MEAN_MOTION_DDOT":"0.0000000000000","COUNTRY_CODE":"US","EPHEMERIS_TYPE":"0","OBJECT_NAME":"STARLINK-1174","EPOCH":"2022-11-24T19:49:19.837920","RA_OF_ASC_NODE":"257.5135","CENTER_NAME":"EARTH","RCS_SIZE":"LARGE","BSTAR":"0.00014296000000","GP_ID":"218721556","DECAY_DATE":null},{"TLE_LINE2":"2 45076  53.0556 257.4773 0001781  57.7656 302.3506 15.06400877155745","INCLINATION":"53.0556","SITE":"AFETR","APOAPSIS":"548.444","PERIAPSIS":"545.977","TLE_LINE1":"1 45076U 20006AJ  22328.83234966  .00001688  00000-0  13218-3 0  9999","ELEMENT_SET_NO":"999","MEAN_ANOMALY":"302.3506","ARG_OF_PERICENTER":"57.7656","MEAN_ELEMENT_THEORY":"SGP4","TIME_SYSTEM":"UTC","MEAN_MOTION_DOT":"0.00001688","SEMIMAJOR_AXIS":"6925.346","CLASSIFICATION_TYPE":"U","REV_AT_EPOCH":"15574","OBJECT_TYPE":"PAYLOAD","OBJECT_ID":"2020-006AJ","LAUNCH_DATE":"2020-01-29","PERIOD":"95.592","MEAN_MOTION":"15.06400877","FILE":"3669335","NORAD_CAT_ID":"45076","COUNTRY_CODE":"US","EPHEMERIS_TYPE":"0","OBJECT_NAME":"STARLINK-1180","ECCENTRICITY":"0.00017810","MEAN_MOTION_DDOT":"0.0000000000000","REF_FRAME":"TEME","RA_OF_ASC_NODE":"257.4773","BSTAR":"0.00013218000000","RCS_SIZE":"LARGE","CENTER_NAME":"EARTH","EPOCH":"2022-11-24T19:58:35.010624","GP_ID":"218719813","DECAY_DATE":null}];
